0 FENGYUN 1C DEB
1 30487U 99025AGZ 13281.61395840  .00054461  00000-0  18631-2 0  9854
2 30487 098.6698 158.4569 0108458 044.2329 017.0743 15.24533279362428
0 FENGYUN 1C DEB
1 30487U 99025AGZ 13282.21125031  .00089928  00000-0  30541-2 0  9865
2 30487 098.6697 159.1477 0108093 042.2676 055.2220 15.24649683362512
0 FENGYUN 1C DEB
1 30487U 99025AGZ 13282.87363660  .00076040  00000-0  25802-2 0  9875
2 30487 098.6698 159.9141 0107766 040.0182 091.0130 15.24763089362619
0 FENGYUN 1C DEB
1 30487U 99025AGZ 13284.18465439  .00076670  00000-0  25911-2 0  9889
2 30487 098.6699 161.4312 0107282 035.6409 087.7118 15.24933626362819
0 FENGYUN 1C DEB
1 30487U 99025AGZ 13285.23433692  .00068751  00000-0  23180-2 0  9890
2 30487 098.6700 162.6459 0106916 032.1383 090.4096 15.25075029362971
0 FENGYUN 1C DEB
1 30487U 99025AGZ 13286.33749337  .00072391  00000-0  24318-2 0  9909
2 30487 098.6704 163.9228 0106493 028.4503 027.2417 15.25215243363144
0 FENGYUN 1C DEB
1 30487U 99025AGZ 13286.60031478  .00068692  00000-0  23074-2 0  9917
2 30487 098.6703 164.2272 0106402 027.5710 030.3418 15.25241171363185
0 FENGYUN 1C DEB
1 30487U 99025AGZ 13287.71157671  .00092125  00000-0  30751-2 0  9923
2 30487 098.6698 165.5141 0105882 023.8545 012.3809 15.25394349363352
0 FENGYUN 1C DEB
1 30487U 99025AGZ 13287.92556959  .00113555  00000-0  37777-2 0  9935
2 30487 098.6697 165.7618 0105690 023.1618 107.4986 15.25437174363382
0 FENGYUN 1C DEB
1 30487U 99025AGZ 13288.51362536  .00108726  00000-0  36084-2 0  9942
2 30487 098.6697 166.4432 0105463 021.2051 096.9401 15.25551354363473
0 FENGYUN 1C DEB
1 30487U 99025AGZ 13288.63288726  .00095112  00000-0  31599-2 0  9954
2 30487 098.6696 166.5814 0105439 020.8012 031.9311 15.25572096363499
0 FENGYUN 1C DEB
1 30487U 99025AGZ 13289.61711304  .00095263  00000-0  31521-2 0  9969
2 30487 098.6695 167.7211 0105026 017.5235 037.6066 15.25737255363641
0 FENGYUN 1C DEB
1 30487U 99025AGZ 13290.15908392  .00090175  00000-0  29800-2 0  9970
2 30487 098.6692 168.3492 0104744 015.7010 134.5298 15.25822755363726
0 FENGYUN 1C DEB
1 30487U 99025AGZ 13291.38755720  .00091570  00000-0  30117-2 0  9985
2 30487 098.6686 169.7728 0104124 011.5595 042.9311 15.26024712363917
0 FENGYUN 1C DEB
1 30487U 99025AGZ 13292.43688215  .00090797  00000-0  29747-2 0  9994
2 30487 098.6682 170.9892 0103627 008.0272 047.9185 15.26195639364078
0 FENGYUN 1C DEB
1 30487U 99025AGZ 13293.49760683  .00095727  00000-0  31221-2 0    02
2 30487 098.6679 172.2193 0103063 004.4830 116.1704 15.26370186364233
0 FENGYUN 1C DEB
1 30487U 99025AGZ 13294.34505615  .00100154  00000-0  32550-2 0    17
2 30487 098.6676 173.2020 0102629 001.6274 093.0558 15.26503739364364
0 FENGYUN 1C DEB
1 30487U 99025AGZ 13295.19756586  .00097272  00000-0  31525-2 0    24
2 30487 098.6672 174.1912 0102202 358.7458 098.1815 15.26641794364497
